LANDSAT 9               
1 49260U 21088A   23313.12412726  .00001098  00000+0  25370-3 0  9994
2 49260  98.2156  21.1738 0001164  91.1290 269.0041 14.57108123112491
